EYESAT-1 (AO-27)        
1 22825U 93061C   17275.87589670  .00000018  00000-0  24869-4 0  9992
2 22825  98.8257 242.8504 0008870  24.0740 336.0854 14.30008097252791
CUTE-1 (CO-55)          
1 27844U 03031E   17275.44560412  .00000103  00000-0  66121-4 0  9994
2 27844  98.6908 282.8951 0010524  42.3420 317.8568 14.22063480739523
CUBESAT XI-IV (CO-57)   
1 27848U 03031J   17275.47453660  .00000084  00000-0  58235-4 0  9992
2 27848  98.6999 283.2271 0010540  51.3166 308.8953 14.21674812739414
CUBESAT XI 5            
1 28895U 05043F   17275.86272802  .00000281  00000-0  62901-4 0  9994
2 28895  97.8776  73.2743 0017354 158.9355 201.2567 14.63446451636231
CUTE-1.7+APD II (CO-65) 
1 32785U 08021C   17275.84176475  .00000451  00000-0  54715-4 0  9996
2 32785  97.5618 295.1720 0013491 165.2523 194.9090 14.87965109510908
COMPASS-1               
1 32787U 08021E   17275.54140630  .00000784  00000-0  81030-4 0  9998
2 32787  97.5524 304.4100 0013711 135.2678 224.9650 14.92736916511517
AAUSAT-II               
1 32788U 08021F   17275.53402639  .00000764  00000-0  76653-4 0  9991
2 32788  97.5505 307.4299 0013204 127.3324 232.9102 14.94024128511604
DELFI-C3 (DO-64)        
1 32789U 08021G   17275.59812914  .00001942  00000-0  13989-3 0  9990
2 32789  97.5486 331.5256 0014339  96.7238 263.5621 15.05266308512920
CANX-2                  
1 32790U 08021H   17275.84148721  .00000406  00000-0  50230-4 0  9993
2 32790  97.5603 293.4772 0014112 167.2990 192.8585 14.87684338510848
SEEDS II (CO-66)        
1 32791U 08021J   17275.53938779  .00000738  00000-0  81213-4 0  9993
2 32791  97.5572 299.5739 0014215 150.6373 209.5647 14.90330304511132
SWISSCUBE               
1 35932U 09051B   17275.33911207  .00000280  00000-0  74425-4 0  9991
2 35932  98.5113  55.8564 0006501 283.3483  76.6989 14.56060369425878
BEESAT                  
1 35933U 09051C   17275.38553347  .00000246  00000-0  66619-4 0  9992
2 35933  98.5150  57.2841 0004784 300.5250  59.5475 14.56174810425944
ITUPSAT 1               
1 35935U 09051E   17275.84561029  .00000190  00000-0  54770-4 0  9994
2 35935  98.5265  58.0080 0007047 290.0538  69.9899 14.55363998425899
TISAT 1                 
1 36799U 10035E   17275.29148641  .00001064  00000-0  11488-3 0  9996
2 36799  98.0746  40.2737 0011818 341.2856  18.7925 14.90524465391736
M-CUBED & EXP-1 PRIME   
1 37855U 11061F   17275.75698055  .00002548  00000-0  13942-3 0  9995
2 37855 101.7048 201.8041 0179503 123.6322 238.2160 15.03417690322950
HORYU 2                 
1 38340U 12025D   17275.78579716  .00000426  00000-0  70779-4 0  9996
2 38340  98.3785 283.5123 0010695 314.6516  45.3819 14.75409255289158
STRAND-1                
1 39090U 13009E   17275.54199202  .00000069  00000-0  39503-4 0  9997
2 39090  98.5441 119.9255 0009037 349.2492  10.8499 14.34985974240852
BRITE-AUSTRIA           
1 39091U 13009F   17275.55181713  .00000048  00000-0  32275-4 0  9993
2 39091  98.5407 119.2883 0010472 356.1246   3.9856 14.35042857240893
UNIBRITE                
1 39092U 13009G   17275.56055585  .00000041  00000-0  29750-4 0  9999
2 39092  98.5417 118.9777 0009210 350.1407   9.9596 14.34916924240862
AIST-2                  
1 39133U 13015D   17275.73288714  .00000475  00000-0  46113-4 0  9996
2 39133  64.8730 305.6640 0038130 263.9695  95.7078 15.04374248244473
SOMP                    
1 39134U 13015E   17275.40757691  .00003521  00000-0  17779-3 0  9996
2 39134  64.8651 240.2675 0038377 247.2261 112.4809 15.18236600245750
BEESAT-3                
1 39135U 13015F   17275.41528768  .00002834  00000-0  15532-3 0  9990
2 39135  64.8701 250.3516 0034019 266.6177  93.1057 15.15923497245173
BEESAT-2                
1 39136U 13015G   17275.36290175  .00002560  00000-0  14330-3 0  9994
2 39136  64.8701 252.6311 0033800 267.2845  92.4411 15.15423673245513
NEE-01 PEGASUS          
1 39151U 13018B   17275.68627093  .00000350  00000-0  53400-4 0  9999
2 39151  97.9827   6.5254 0018342  64.8102 295.5009 14.79776625239439
CUBEBUG-1 (CAPITAN BETO)
1 39153U 13018D   17275.71012213  .00000429  00000-0  63228-4 0  9993
2 39153  97.9853   7.4349 0018220  62.8529 297.4538 14.80246716239490
ESTCUBE 1               
1 39161U 13021C   17275.74225962  .00000405  00000-0  72527-4 0  9992
2 39161  98.0242   0.3274 0010450 152.3672 207.8095 14.71950526236573
POPACS 1                
1 39268U 13055D   17275.37729770  .00005895  00000-0  17115-3 0  9991
2 39268  81.0017 256.2497 0645549 265.0516  87.6723 14.32067455206053
POPACS 2                
1 39269U 13055E   17275.42950157  .00005334  00000-0  15877-3 0  9994
2 39269  81.0138 273.0312 0696825 308.8394  45.2521 14.20730224206520
POPACS 3                
1 39270U 13055F   17275.72113346  .00003476  00000-0  11048-3 0  9991
2 39270  81.0140 281.9854 0722913 335.9009  20.9834 14.13723316205966
FIREFLY                 
1 39404U 13064AA  17275.56989418  .00215004  23855-4  57596-3 0  9990
2 39404  40.4925 338.7064 0007665 111.0131 249.1523 15.93593538214676
ZACUBE-1 (TSHEPISOSAT)  
1 39417U 13066B   17275.53723478  .00000421  00000-0  59795-4 0  9997
2 39417  97.6195 312.5166 0057742 278.9754  80.4926 14.80780762208668
WNISAT-1                
1 39423U 13066H   17275.91664977  .00000214  00000-0  51384-4 0  9990
2 39423  97.6932 255.4274 0177109 101.1815 260.9357 14.52875697204877
TRITON-1                
1 39427U 13066M   17275.85452129  .00000482  00000-0  85103-4 0  9994
2 39427  97.6373 283.9940 0114380   4.6382 355.5855 14.67524948206832
GOMX 1                  
1 39430U 13066Q   17275.44119340  .00000516  00000-0  10219-3 0  9991
2 39430  97.6722 266.3387 0153201  64.5628 297.1337 14.58930611205571
BRITE-PL                
1 39431U 13066R   17275.44941416  .00000155  00000-0  42751-4 0  9995
2 39431  97.7193 243.7612 0203424 143.4016 218.1276 14.46871171203762
HUMSAT-D                
1 39433U 13066T   17275.73040521  .00001006  00000-0  10501-3 0  9999
2 39433  97.6417 335.6163 0030311 217.2764 142.6352 14.91569359210044
EAGLE 2                 
1 39436U 13066W   17275.24578415  .00058474  00000-0  12913-2 0  9995
2 39436  97.7125  26.8278 0007838  59.8054 300.3969 15.43639252211978
CUBEBUG-2 (LO-74)       
1 39440U 13066AA  17275.86864089  .00000412  00000-0  64767-4 0  9998
2 39440  97.6218 301.1784 0079523 311.7110  47.7315 14.75522137207978
NEE-02 KRYSAOR          
1 39441U 13066AB  17275.53025119  .00000301  00000-0  50198-4 0  9996
2 39441  97.6202 299.4113 0081020 316.8565  42.6314 14.74669764206645
FUNCUBE-1 (AO-73)       
1 39444U 13066AE  17275.53089704  .00000513  00000-0  70261-4 0  9997
2 39444  97.6210 313.7031 0056913 275.2541  84.2180 14.81528474207500
UWE-3                   
1 39446U 13066AG  17275.51963816  .00000417  00000-0  62579-4 0  9998
2 39446  97.6194 306.3580 0069003 296.3350  63.0786 14.78053956206461
BRITE-TORONTO           
1 40020U 14033L   17275.84743577  .00000162  00000-0  36368-4 0  9993
2 40020  97.8189 141.7008 0087322 345.3875  14.4806 14.66426052175864
DUCHIFAT-1              
1 40021U 14033M   17275.75127537  .00000910  00000-0  10020-3 0  9993
2 40021  97.9130 189.0459 0012049 312.4417  47.5780 14.90021001178614
FLOCK 1C-10             
1 40023U 14033P   17275.73310716  .00001887  00000-0  20694-3 0  9998
2 40023  97.9144 187.9601 0012493 321.3460  38.6869 14.88893980178504
NANOSATC-BR1            
1 40024U 14033Q   17275.73536202  .00000765  00000-0  86600-4 0  9993
2 40024  97.9082 187.7442 0011350 314.1041  45.9241 14.89327693178557
QB50P1                  
1 40025U 14033R   17275.50399223  .00000713  00000-0  82700-4 0  9999
2 40025  97.9058 186.3919 0011646 318.2308  41.8018 14.88512642178459
FLOCK 1C-7              
1 40026U 14033S   17275.69683883  .00001717  00000-0  18551-3 0  9995
2 40026  97.9168 188.7913 0010874 317.7008  42.3350 14.89629813178551
FLOCK 1C-1              
1 40027U 14033T   17275.69660319  .00001638  00000-0  18019-3 0  9996
2 40027  97.9160 188.1824 0012319 316.8818  43.1420 14.88955022178510
POPSAT-HIP-1            
1 40028U 14033U   17275.81393195  .00000993  00000-0  11319-3 0  9995
2 40028  97.9087 187.0067 0013044 315.8744  44.1438 14.88380731178484
FLOCK 1C-2              
1 40029U 14033V   17275.72429053  .00001677  00000-0  18416-3 0  9994
2 40029  97.9148 188.0581 0013851 313.6189  46.3885 14.88969454178508
FLOCK 1C-4              
1 40031U 14033X   17275.75151585  .00001885  00000-0  20703-3 0  9995
2 40031  97.9158 188.0488 0013791 311.2278  48.7749 14.88822245178493
QB50P2                  
1 40032U 14033Y   17275.58338446  .00000639  00000-0  75562-4 0  9990
2 40032  97.9026 185.4771 0010911 312.8299  47.1999 14.88066416177898
FLOCK 1C-11             
1 40033U 14033Z   17275.70217726  .00000547  00000-0  62164-4 0  9994
2 40033  97.9181 189.6675 0011271 304.3604  55.6548 14.90279368178605
ANTELSAT                
1 40034U 14033AA  17275.62785090  .00000454  00000-0  75422-4 0  9998
2 40034  97.8428 156.1419 0058009 308.3711  51.2294 14.73767177176213
FLOCK 1C-9              
1 40035U 14033AB  17275.70896750  .00001495  00000-0  16468-3 0  9994
2 40035  97.9191 188.4537 0011339 306.4086  53.6103 14.89026237178501
FLOCK 1C-6              
1 40036U 14033AC  17275.72233245  .00001549  00000-0  16996-3 0  9997
2 40036  97.9186 188.7030 0011629 307.9510  52.0729 14.89131932178525
PERSEUS-M2              
1 40037U 14033AD  17275.44274527  .00000250  00000-0  34676-4 0  9999
2 40037  97.9040 183.6191 0013504 318.9855  41.0344 14.86267112177746
FLOCK 1C-5              
1 40038U 14033AE  17275.73072034  .00001672  00000-0  18301-3 0  9996
2 40038  97.9171 188.4985 0013606 305.8287  54.1707 14.89109869178514
PERSEUS-M1              
1 40039U 14033AF  17275.60430257  .00000266  00000-0  36824-4 0  9997
2 40039  97.9045 183.2883 0013272 314.4306  45.5823 14.85891112177711
